[{"OBJECT_NAME":"ONEWEB-0124","OBJECT_ID":"2020-100N","EPOCH":"2026-01-30T04:58:36.022368","MEAN_MOTION":13.12440172,"ECCENTRICITY":0.00017736,"INCLINATION":87.8934,"RA_OF_ASC_NODE":18.0724,"ARG_OF_PERICENTER":81.5046,"MEAN_ANOMALY":278.6284,"EPHEMERIS_TYPE":0,"CLASSIFICATION_TYPE":"U","NORAD_CAT_ID":47270,"ELEMENT_SET_NO":999,"REV_AT_EPOCH":24647,"BSTAR":-0.00078155842,"MEAN_MOTION_DOT":-2.68e-6,"MEAN_MOTION_DDOT":0},{"OBJECT_NAME":"ONEWEB-0125","OBJECT_ID":"2020-100P","EPOCH":"2026-01-30T04:26:54.421440","MEAN_MOTION":13.12441247,"ECCENTRICITY":0.00019944,"INCLINATION":87.8946,"RA_OF_ASC_NODE":18.0439,"ARG_OF_PERICENTER":80.505,"MEAN_ANOMALY":279.6303,"EPHEMERIS_TYPE":0,"CLASSIFICATION_TYPE":"U","NORAD_CAT_ID":47271,"ELEMENT_SET_NO":999,"REV_AT_EPOCH":24653,"BSTAR":0.0011900393,"MEAN_MOTION_DOT":4.41e-6,"MEAN_MOTION_DDOT":0},{"OBJECT_NAME":"ONEWEB-0126","OBJECT_ID":"2020-100Q","EPOCH":"2026-01-29T23:27:02.815488","MEAN_MOTION":13.12442991,"ECCENTRICITY":0.00017969,"INCLINATION":87.8941,"RA_OF_ASC_NODE":18.1086,"ARG_OF_PERICENTER":89.5758,"MEAN_ANOMALY":270.5577,"EPHEMERIS_TYPE":0,"CLASSIFICATION_TYPE":"U","NORAD_CAT_ID":47272,"ELEMENT_SET_NO":999,"REV_AT_EPOCH":24657,"BSTAR":-0.00061993933,"MEAN_MOTION_DOT":-2.1e-6,"MEAN_MOTION_DDOT":0},{"OBJECT_NAME":"ONEWEB-0127","OBJECT_ID":"2020-100R","EPOCH":"2026-01-30T00:27:51.038208","MEAN_MOTION":13.12443782,"ECCENTRICITY":0.00017472,"INCLINATION":87.893,"RA_OF_ASC_NODE":18.1078,"ARG_OF_PERICENTER":91.0761,"MEAN_ANOMALY":269.0568,"EPHEMERIS_TYPE":0,"CLASSIFICATION_TYPE":"U","NORAD_CAT_ID":47273,"ELEMENT_SET_NO":999,"REV_AT_EPOCH":24660,"BSTAR":0.00079083451,"MEAN_MOTION_DOT":2.97e-6,"MEAN_MOTION_DDOT":0},{"OBJECT_NAME":"ONEWEB-0128","OBJECT_ID":"2020-100S","EPOCH":"2026-01-30T04:39:06.587136","MEAN_MOTION":13.12442146,"ECCENTRICITY":0.00014603,"INCLINATION":87.8932,"RA_OF_ASC_NODE":18.0875,"ARG_OF_PERICENTER":84.0484,"MEAN_ANOMALY":276.0811,"EPHEMERIS_TYPE":0,"CLASSIFICATION_TYPE":"U","NORAD_CAT_ID":47274,"ELEMENT_SET_NO":999,"REV_AT_EPOCH":24664,"BSTAR":0.00065838509,"MEAN_MOTION_DOT":2.5e-6,"MEAN_MOTION_DDOT":0},{"OBJECT_NAME":"ONEWEB-0129","OBJECT_ID":"2020-100T","EPOCH":"2026-01-30T00:30:16.687008","MEAN_MOTION":13.12443993,"ECCENTRICITY":0.00021723,"INCLINATION":87.8941,"RA_OF_ASC_NODE":18.0819,"ARG_OF_PERICENTER":119.013,"MEAN_ANOMALY":241.1217,"EPHEMERIS_TYPE":0,"CLASSIFICATION_TYPE":"U","NORAD_CAT_ID":47275,"ELEMENT_SET_NO":999,"REV_AT_EPOCH":24655,"BSTAR":0.00079361671,"MEAN_MOTION_DOT":2.98e-6,"MEAN_MOTION_DDOT":0},{"OBJECT_NAME":"ONEWEB-0130","OBJECT_ID":"2020-100U","EPOCH":"2026-01-29T21:29:43.368576","MEAN_MOTION":13.12440906,"ECCENTRICITY":0.00016825,"INCLINATION":87.8943,"RA_OF_ASC_NODE":18.1007,"ARG_OF_PERICENTER":88.3507,"MEAN_ANOMALY":271.7815,"EPHEMERIS_TYPE":0,"CLASSIFICATION_TYPE":"U","NORAD_CAT_ID":47276,"ELEMENT_SET_NO":999,"REV_AT_EPOCH":24650,"BSTAR":-0.00021990204,"MEAN_MOTION_DOT":-6.6e-7,"MEAN_MOTION_DDOT":0},{"OBJECT_NAME":"ONEWEB-0131","OBJECT_ID":"2020-100V","EPOCH":"2026-01-30T04:43:59.833920","MEAN_MOTION":13.12442408,"ECCENTRICITY":0.00017122,"INCLINATION":87.8944,"RA_OF_ASC_NODE":18.0712,"ARG_OF_PERICENTER":85.9482,"MEAN_ANOMALY":274.1842,"EPHEMERIS_TYPE":0,"CLASSIFICATION_TYPE":"U","NORAD_CAT_ID":47277,"ELEMENT_SET_NO":999,"REV_AT_EPOCH":24658,"BSTAR":0.00019390718,"MEAN_MOTION_DOT":8.2e-7,"MEAN_MOTION_DDOT":0},{"OBJECT_NAME":"ONEWEB-0132","OBJECT_ID":"2020-100W","EPOCH":"2026-01-29T23:56:06.516960","MEAN_MOTION":13.12442004,"ECCENTRICITY":0.00017025,"INCLINATION":87.8934,"RA_OF_ASC_NODE":18.1107,"ARG_OF_PERICENTER":85.5323,"MEAN_ANOMALY":274.6,"EPHEMERIS_TYPE":0,"CLASSIFICATION_TYPE":"U","NORAD_CAT_ID":47278,"ELEMENT_SET_NO":999,"REV_AT_EPOCH":24645,"BSTAR":-0.00090872783,"MEAN_MOTION_DOT":-3.14e-6,"MEAN_MOTION_DDOT":0},{"OBJECT_NAME":"ONEWEB-0133","OBJECT_ID":"2020-100X","EPOCH":"2026-01-30T00:20:18.502656","MEAN_MOTION":13.12442861,"ECCENTRICITY":0.00016187,"INCLINATION":87.894,"RA_OF_ASC_NODE":18.0695,"ARG_OF_PERICENTER":83.1766,"MEAN_ANOMALY":276.9546,"EPHEMERIS_TYPE":0,"CLASSIFICATION_TYPE":"U","NORAD_CAT_ID":47279,"ELEMENT_SET_NO":999,"REV_AT_EPOCH":24661,"BSTAR":0.00046475966,"MEAN_MOTION_DOT":1.8e-6,"MEAN_MOTION_DDOT":0},{"OBJECT_NAME":"ONEWEB-0134","OBJECT_ID":"2020-100Y","EPOCH":"2026-01-30T05:05:56.070528","MEAN_MOTION":13.1244115,"ECCENTRICITY":0.00015376,"INCLINATION":87.8942,"RA_OF_ASC_NODE":18.027,"ARG_OF_PERICENTER":90.177,"MEAN_ANOMALY":269.9534,"EPHEMERIS_TYPE":0,"CLASSIFICATION_TYPE":"U","NORAD_CAT_ID":47280,"ELEMENT_SET_NO":999,"REV_AT_EPOCH":24661,"BSTAR":-0.0011008118,"MEAN_MOTION_DOT":-3.83e-6,"MEAN_MOTION_DDOT":0},{"OBJECT_NAME":"ONEWEB-0135","OBJECT_ID":"2020-100Z","EPOCH":"2026-01-30T06:14:15.884448","MEAN_MOTION":13.12441752,"ECCENTRICITY":0.00014167,"INCLINATION":87.8942,"RA_OF_ASC_NODE":18.0561,"ARG_OF_PERICENTER":89.6801,"MEAN_ANOMALY":270.449,"EPHEMERIS_TYPE":0,"CLASSIFICATION_TYPE":"U","NORAD_CAT_ID":47281,"ELEMENT_SET_NO":999,"REV_AT_EPOCH":24664,"BSTAR":0.00092259042,"MEAN_MOTION_DOT":3.45e-6,"MEAN_MOTION_DDOT":0},{"OBJECT_NAME":"ONEWEB-0136","OBJECT_ID":"2020-100AA","EPOCH":"2026-01-30T04:51:18.374400","MEAN_MOTION":13.12442982,"ECCENTRICITY":0.00014701,"INCLINATION":87.8943,"RA_OF_ASC_NODE":18.0378,"ARG_OF_PERICENTER":96.8801,"MEAN_ANOMALY":263.2495,"EPHEMERIS_TYPE":0,"CLASSIFICATION_TYPE":"U","NORAD_CAT_ID":47282,"ELEMENT_SET_NO":999,"REV_AT_EPOCH":24656,"BSTAR":-0.00014862995,"MEAN_MOTION_DOT":-4.1e-7,"MEAN_MOTION_DDOT":0},{"OBJECT_NAME":"ONEWEB-0137","OBJECT_ID":"2020-100AB","EPOCH":"2026-01-29T22:20:57.985152","MEAN_MOTION":13.12443564,"ECCENTRICITY":0.00019237,"INCLINATION":87.894,"RA_OF_ASC_NODE":18.0971,"ARG_OF_PERICENTER":85.8427,"MEAN_ANOMALY":274.2921,"EPHEMERIS_TYPE":0,"CLASSIFICATION_TYPE":"U","NORAD_CAT_ID":47283,"ELEMENT_SET_NO":999,"REV_AT_EPOCH":24643,"BSTAR":-3.6729654e-5,"MEAN_MOTION_DOT":0,"MEAN_MOTION_DDOT":0},{"OBJECT_NAME":"ONEWEB-0138","OBJECT_ID":"2020-100AC","EPOCH":"2026-01-29T23:39:01.049184","MEAN_MOTION":13.12441685,"ECCENTRICITY":0.00016768,"INCLINATION":87.8943,"RA_OF_ASC_NODE":18.096,"ARG_OF_PERICENTER":92.2908,"MEAN_ANOMALY":267.8412,"EPHEMERIS_TYPE":0,"CLASSIFICATION_TYPE":"U","NORAD_CAT_ID":47284,"ELEMENT_SET_NO":999,"REV_AT_EPOCH":24652,"BSTAR":-0.0011477837,"MEAN_MOTION_DOT":-4.0e-6,"MEAN_MOTION_DDOT":0},{"OBJECT_NAME":"ONEWEB-0139","OBJECT_ID":"2020-100AD","EPOCH":"2026-01-30T06:07:08.308992","MEAN_MOTION":13.12442733,"ECCENTRICITY":0.00017439,"INCLINATION":87.894,"RA_OF_ASC_NODE":18.0302,"ARG_OF_PERICENTER":87.2885,"MEAN_ANOMALY":272.8443,"EPHEMERIS_TYPE":0,"CLASSIFICATION_TYPE":"U","NORAD_CAT_ID":47285,"ELEMENT_SET_NO":999,"REV_AT_EPOCH":24663,"BSTAR":0.0012755707,"MEAN_MOTION_DOT":4.72e-6,"MEAN_MOTION_DDOT":0},{"OBJECT_NAME":"ONEWEB-0140","OBJECT_ID":"2020-100AE","EPOCH":"2026-01-30T05:01:03.631584","MEAN_MOTION":13.12441568,"ECCENTRICITY":0.00016551,"INCLINATION":87.8943,"RA_OF_ASC_NODE":18.0273,"ARG_OF_PERICENTER":81.4375,"MEAN_ANOMALY":278.6941,"EPHEMERIS_TYPE":0,"CLASSIFICATION_TYPE":"U","NORAD_CAT_ID":47286,"ELEMENT_SET_NO":999,"REV_AT_EPOCH":24659,"BSTAR":-0.0010098528,"MEAN_MOTION_DOT":-3.51e-6,"MEAN_MOTION_DDOT":0}]
