ONEWEB-0124             
1 47270U 20100N   26030.20736137 -.00000268  00000+0 -78156-3 0  9990
2 47270  87.8934  18.0724 0001773  81.5046 278.6284 13.12440172246470
ONEWEB-0125             
1 47271U 20100P   26030.18535210  .00000441  00000+0  11900-2 0  9991
2 47271  87.8946  18.0439 0001994  80.5050 279.6303 13.12441247246530
ONEWEB-0126             
1 47272U 20100Q   26029.97711592 -.00000210  00000+0 -61994-3 0  9991
2 47272  87.8941  18.1086 0001796  89.5758 270.5577 13.12442991246573
ONEWEB-0127             
1 47273U 20100R   26030.01934072  .00000297  00000+0  79083-3 0  9990
2 47273  87.8930  18.1078 0001747  91.0761 269.0568 13.12443782246607
ONEWEB-0128             
1 47274U 20100S   26030.19382624  .00000250  00000+0  65839-3 0  9993
2 47274  87.8932  18.0875 0001460  84.0484 276.0811 13.12442146246646
ONEWEB-0129             
1 47275U 20100T   26030.02102647  .00000298  00000+0  79362-3 0  9999
2 47275  87.8941  18.0819 0002172 119.0130 241.1217 13.12443993246557
ONEWEB-0130             
1 47276U 20100U   26029.89564084 -.00000066  00000+0 -21990-3 0  9999
2 47276  87.8943  18.1007 0001682  88.3507 271.7815 13.12440906246500
ONEWEB-0131             
1 47277U 20100V   26030.19722030  .00000082  00000+0  19391-3 0  9990
2 47277  87.8944  18.0712 0001712  85.9482 274.1842 13.12442408246587
ONEWEB-0132             
1 47278U 20100W   26029.99729765 -.00000314  00000+0 -90873-3 0  9993
2 47278  87.8934  18.1107 0001702  85.5323 274.6000 13.12442004246454
ONEWEB-0133             
1 47279U 20100X   26030.01410304  .00000180  00000+0  46476-3 0  9994
2 47279  87.8940  18.0695 0001618  83.1766 276.9546 13.12442861246613
ONEWEB-0134             
1 47280U 20100Y   26030.21245452 -.00000383  00000+0 -11008-2 0  9997
2 47280  87.8942  18.0270 0001537  90.1770 269.9534 13.12441150246618
ONEWEB-0135             
1 47281U 20100Z   26030.25990607  .00000345  00000+0  92259-3 0  9995
2 47281  87.8942  18.0561 0001416  89.6801 270.4490 13.12441752246645
ONEWEB-0136             
1 47282U 20100AA  26030.20229600 -.00000041  00000+0 -14863-3 0  9999
2 47282  87.8943  18.0378 0001470  96.8801 263.2495 13.12442982246565
ONEWEB-0137             
1 47283U 20100AB  26029.93122668  .00000000  00000+0 -36730-4 0  9996
2 47283  87.8940  18.0971 0001923  85.8427 274.2921 13.12443564246436
ONEWEB-0138             
1 47284U 20100AC  26029.98542881 -.00000400  00000+0 -11478-2 0  9990
2 47284  87.8943  18.0960 0001676  92.2908 267.8412 13.12441685246524
ONEWEB-0139             
1 47285U 20100AD  26030.25495728  .00000472  00000+0  12756-2 0  9997
2 47285  87.8940  18.0302 0001743  87.2885 272.8443 13.12442733246632
ONEWEB-0140             
1 47286U 20100AE  26030.20906981 -.00000351  00000+0 -10099-2 0  9997
2 47286  87.8943  18.0273 0001655  81.4375 278.6941 13.12441568246592
